JILIN-1 GAOFEN 3J       
1 46462U 20065J   24226.87392404  .00034643  00000+0  12396-2 0  9990
2 46462  97.3354 270.9070 0009185  32.7684 327.4124 15.28665027216243
HAIYANG-2C              
1 46469U 20066A   24226.89671194  .00000121  00000+0  18326-3 0  9990
2 46469  65.9957  89.1398 0008299 236.2132 123.8147 13.83375056196505
HJ-2A                   
1 46478U 20067A   24226.84396148  .00004488  00000+0  65213-3 0  9996
2 46478  97.9385 307.8730 0001083 256.3158 103.7931 14.76449083209047
HJ-2B                   
1 46479U 20067B   24226.81163509  .00003353  00000+0  48924-3 0  9997
2 46479  97.9428 308.4336 0001378  65.9554 294.1800 14.76434903209041
GONETS-M 17             
1 46486U 20068A   24226.81224444  .00000068  00000+0  41652-3 0  9993
2 46486  82.4957  45.7612 0023601  62.7450 297.6030 12.42874127175633
GONETS-M 18             
1 46487U 20068B   24226.85798311  .00000065  00000+0  39981-3 0  9996
2 46487  82.4911  45.1068 0020881  59.3165 300.9969 12.42894139175628
GONETS-M 19             
1 46488U 20068C   24226.83362274  .00000079  00000+0  50078-3 0  9995
2 46488  82.4935  45.4342 0014650  74.5349 285.7347 12.42888638175721
MEZNSAT                 
1 46489U 20068D   24228.90281761  .00042382  00000+0  14315-2 0  9993
2 46489  97.8123 197.7065 0014140  91.2957 268.9903 15.30447490213898
YARILO 1                
1 46490U 20068E   24228.91225069  .00060395  00000+0  18206-2 0  9992
2 46490  97.8139 199.1921 0013398  90.9960 269.2816 15.34009114213986
YARILO 2                
1 46491U 20068F   24228.79809420  .00063177  00000+0  18766-2 0  9990
2 46491  97.8100 198.7544 0014101  93.4594 266.8261 15.34452521213942
LACUNASAT-3             
1 46492U 20068G   24228.66222440  .00068859  00000+0  19036-2 0  9991
2 46492  97.8101 199.7298 0012959  90.4306 269.8422 15.36695662213981
DEKART                  
1 46493U 20068H   24226.88843643  .00019132  00000+0  98439-3 0  9993
2 46493  97.8196 189.1738 0016740 114.6425 245.6553 15.16361222213135
NORBI                   
1 46494U 20068J   24226.83607273  .00023238  00000+0  11268-2 0  9992
2 46494  97.8196 190.1679 0015823 112.2076 248.0837 15.18407679213196
SALSAT                  
1 46495U 20068K   24228.90266976  .00014512  00000+0  79327-3 0  9990
2 46495  97.8196 189.7531 0015799 107.9047 252.3908 15.14294635213345
ICEYE-X6                
1 46497U 20068M   24225.82866230  .00004691  00000+0  37416-3 0  9999
2 46497  97.9598 183.2333 0004194 173.5568 186.5709 15.00811980212166
LEMUR-2-SLICERS         
1 46500U 20068Q   24228.82238171  .00235633  00000+0  25403-2 0  9998
2 46500  97.7662 203.8227 0010628 101.2636 258.9816 15.62849147214300
LEMUR-2-SUSURRUS        
1 46502U 20068S   24228.82304920  .00213998  00000+0  23129-2 0  9999
2 46502  97.7731 203.9770 0010317 100.0329 260.2093 15.62856128214304
NETSAT-4                
1 46504U 20068U   24229.13773795  .00017057  00000+0  86883-3 0  9991
2 46504  97.8087 187.9755 0011254 146.0106 214.1849 15.16809470213256
NETSAT-3                
1 46505U 20068V   24228.61808296  .00017723  00000+0  91930-3 0  9998
2 46505  97.8062 186.8708 0010263 153.9319 206.2432 15.16170263213169
NETSAT-1                
1 46506U 20068W   24228.60566189  .00014898  00000+0  81675-3 0  9995
2 46506  97.8085 186.1826 0008682 162.2185 197.9352 15.14258917213118
NETSAT-2                
1 46507U 20068X   24228.89332403  .00017994  00000+0  91819-3 0  9998
2 46507  97.8072 187.3370 0007884 162.7879 197.3622 15.16763095213169
