OBJECT_NAME,OBJECT_ID,EPOCH,MEAN_MOTION,ECCENTRICITY,INCLINATION,RA_OF_ASC_NODE,ARG_OF_PERICENTER,MEAN_ANOMALY,EPHEMERIS_TYPE,CLASSIFICATION_TYPE,NORAD_CAT_ID,ELEMENT_SET_NO,REV_AT_EPOCH,BSTAR,MEAN_MOTION_DOT,MEAN_MOTION_DDOT
JILIN-1 GAOFEN 3J,2020-065J,2024-08-13T20:58:27.037056,15.28665027,.0009185,97.3354,270.9070,32.7684,327.4124,0,U,46462,999,21624,.12396E-2,.34643E-3,0
HAIYANG-2C,2020-066A,2024-08-13T21:31:15.911616,13.83375056,.0008299,65.9957,89.1398,236.2132,123.8147,0,U,46469,999,19650,.18326E-3,.121E-5,0
HJ-2A,2020-067A,2024-08-13T20:15:18.271872,14.76449083,.0001083,97.9385,307.8730,256.3158,103.7931,0,U,46478,999,20904,.65213E-3,.4488E-4,0
HJ-2B,2020-067B,2024-08-13T19:28:45.271776,14.76434903,.0001378,97.9428,308.4336,65.9554,294.1800,0,U,46479,999,20904,.48924E-3,.3353E-4,0
GONETS-M 17,2020-068A,2024-08-13T19:29:37.919616,12.42874127,.0023601,82.4957,45.7612,62.7450,297.6030,0,U,46486,999,17563,.41652E-3,.68E-6,0
GONETS-M 18,2020-068B,2024-08-13T20:35:29.740704,12.42894139,.0020881,82.4911,45.1068,59.3165,300.9969,0,U,46487,999,17562,.39981E-3,.65E-6,0
GONETS-M 19,2020-068C,2024-08-13T20:00:25.004736,12.42888638,.001465,82.4935,45.4342,74.5349,285.7347,0,U,46488,999,17572,.50078E-3,.79E-6,0
MEZNSAT,2020-068D,2024-08-15T21:40:03.441504,15.30447490,.001414,97.8123,197.7065,91.2957,268.9903,0,U,46489,999,21389,.14315E-2,.42382E-3,0
YARILO 1,2020-068E,2024-08-15T21:53:38.459616,15.34009114,.0013398,97.8139,199.1921,90.9960,269.2816,0,U,46490,999,21398,.18206E-2,.60395E-3,0
YARILO 2,2020-068F,2024-08-15T19:09:15.338880,15.34452521,.0014101,97.8100,198.7544,93.4594,266.8261,0,U,46491,999,21394,.18766E-2,.63177E-3,0
LACUNASAT-3,2020-068G,2024-08-15T15:53:36.188160,15.36695662,.0012959,97.8101,199.7298,90.4306,269.8422,0,U,46492,999,21398,.19036E-2,.68859E-3,0
DEKART,2020-068H,2024-08-13T21:19:20.907552,15.16361222,.001674,97.8196,189.1738,114.6425,245.6553,0,U,46493,999,21313,.98439E-3,.19132E-3,0
NORBI,2020-068J,2024-08-13T20:03:56.683872,15.18407679,.0015823,97.8196,190.1679,112.2076,248.0837,0,U,46494,999,21319,.11268E-2,.23238E-3,0
SALSAT,2020-068K,2024-08-15T21:39:50.667264,15.14294635,.0015799,97.8196,189.7531,107.9047,252.3908,0,U,46495,999,21334,.79327E-3,.14512E-3,0
ICEYE-X6,2020-068M,2024-08-12T19:53:16.422720,15.00811980,.0004194,97.9598,183.2333,173.5568,186.5709,0,U,46497,999,21216,.37416E-3,.4691E-4,0
LEMUR-2-SLICERS,2020-068Q,2024-08-15T19:44:13.779744,15.62849147,.0010628,97.7662,203.8227,101.2636,258.9816,0,U,46500,999,21430,.25403E-2,.235633E-2,0
LEMUR-2-SUSURRUS,2020-068S,2024-08-15T19:45:11.450880,15.62856128,.0010317,97.7731,203.9770,100.0329,260.2093,0,U,46502,999,21430,.23129E-2,.213998E-2,0
NETSAT-4,2020-068U,2024-08-16T03:18:20.558880,15.16809470,.0011254,97.8087,187.9755,146.0106,214.1849,0,U,46504,999,21325,.86883E-3,.17057E-3,0
NETSAT-3,2020-068V,2024-08-15T14:50:02.367744,15.16170263,.0010263,97.8062,186.8708,153.9319,206.2432,0,U,46505,999,21316,.9193E-3,.17723E-3,0
NETSAT-1,2020-068W,2024-08-15T14:32:09.187296,15.14258917,.0008682,97.8085,186.1826,162.2185,197.9352,0,U,46506,999,21311,.81675E-3,.14898E-3,0
NETSAT-2,2020-068X,2024-08-15T21:26:23.196192,15.16763095,.0007884,97.8072,187.3370,162.7879,197.3622,0,U,46507,999,21316,.91819E-3,.17994E-3,0
